{
  "type": "FeatureCollection",
  "features": [
    {
      "type": "Feature",
      "properties": {
        "norad_id": 35144,
        "name": "FENGYUN 1C DEB",
        "group": "fengyun-1c-debris",
        "lat": 66.74540955564957,
        "lon": -52.266472017263425,
        "alt_km": 699.5421519560932,
        "timestamp": "2025-12-17T07:00:47.192205+00:00",
        "meta_object_name": "FENGYUN 1C DEB",
        "meta_object_id": "1999-025DLY",
        "meta_epoch": "2025-12-15T03:29:25.584864",
        "meta_mean_motion": 14.59259684,
        "meta_eccentricity": 0.00266192,
        "meta_inclination": 98.6997,
        "meta_ra_of_asc_node": 104.611,
        "meta_arg_of_pericenter": 353.8009,
        "meta_mean_anomaly": 6.2856,
        "meta_ephemeris_type": 0,
        "meta_classification_type": "U",
        "meta_norad_cat_id": 35144,
        "meta_element_set_no": 999,
        "meta_rev_at_epoch": 65248,
        "meta_bstar": 0.0015089834,
        "meta_mean_motion_dot": 7.114e-05,
        "meta_mean_motion_ddot": 0,
        "tle_line1": "1 35144U 99025DLY 25349.14543501  .00007114  00000+0  15090-2 0  9997",
        "tle_line2": "2 35144  98.6997 104.6110 0026619 353.8009   6.2856 14.59259684652487"
      },
      "geometry": {
        "type": "Point",
        "coordinates": [
          -52.266472017263425,
          66.74540955564957
        ]
      }
    },
    {
      "type": "Feature",
      "properties": {
        "norad_id": 35147,
        "name": "FENGYUN 1C DEB",
        "group": "fengyun-1c-debris",
        "lat": -9.127760275505045,
        "lon": -116.18207882177235,
        "alt_km": 631.7917081778451,
        "timestamp": "2025-12-17T07:00:47.192215+00:00",
        "meta_object_name": "FENGYUN 1C DEB",
        "meta_object_id": "1999-025DMB",
        "meta_epoch": "2025-12-15T23:12:44.809056",
        "meta_mean_motion": 14.74400699,
        "meta_eccentricity": 0.00274157,
        "meta_inclination": 99.4876,
        "meta_ra_of_asc_node": 63.8082,
        "meta_arg_of_pericenter": 189.8858,
        "meta_mean_anomaly": 170.181,
        "meta_ephemeris_type": 0,
        "meta_classification_type": "U",
        "meta_norad_cat_id": 35147,
        "meta_element_set_no": 999,
        "meta_rev_at_epoch": 74352,
        "meta_bstar": 0.0018782203,
        "meta_mean_motion_dot": 0.00012489,
        "meta_mean_motion_ddot": 0,
        "tle_line1": "1 35147U 99025DMB 25349.96718529  .00012489  00000+0  18782-2 0  9996",
        "tle_line2": "2 35147  99.4876  63.8082 0027415 189.8858 170.1810 14.74400699743521"
      },
      "geometry": {
        "type": "Point",
        "coordinates": [
          -116.18207882177235,
          -9.127760275505045
        ]
      }
    },
    {
      "type": "Feature",
      "properties": {
        "norad_id": 35152,
        "name": "FENGYUN 1C DEB",
        "group": "fengyun-1c-debris",
        "lat": 58.80901203462859,
        "lon": 10.749363671867505,
        "alt_km": 1031.2295601739233,
        "timestamp": "2025-12-17T07:00:47.192229+00:00",
        "meta_object_name": "FENGYUN 1C DEB",
        "meta_object_id": "1999-025DMG",
        "meta_epoch": "2025-12-16T18:13:57.032832",
        "meta_mean_motion": 13.7643783,
        "meta_eccentricity": 0.01945259,
        "meta_inclination": 99.8194,
        "meta_ra_of_asc_node": 173.5777,
        "meta_arg_of_pericenter": 5.0809,
        "meta_mean_anomaly": 355.2255,
        "meta_ephemeris_type": 0,
        "meta_classification_type": "U",
        "meta_norad_cat_id": 35152,
        "meta_element_set_no": 999,
        "meta_rev_at_epoch": 62248,
        "meta_bstar": 0.00057948786,
        "meta_mean_motion_dot": 6.03e-06,
        "meta_mean_motion_ddot": 0,
        "tle_line1": "1 35152U 99025DMG 25350.75968788  .00000603  00000+0  57949-3 0  9999",
        "tle_line2": "2 35152  99.8194 173.5777 0194525   5.0809 355.2255 13.76437830622484"
      },
      "geometry": {
        "type": "Point",
        "coordinates": [
          10.749363671867505,
          58.80901203462859
        ]
      }
    },
    {
      "type": "Feature",
      "properties": {
        "norad_id": 35153,
        "name": "FENGYUN 1C DEB",
        "group": "fengyun-1c-debris",
        "lat": 48.35695232071704,
        "lon": 73.69268104992618,
        "alt_km": 586.2154481248263,
        "timestamp": "2025-12-17T07:00:47.192239+00:00",
        "meta_object_name": "FENGYUN 1C DEB",
        "meta_object_id": "1999-025DMH",
        "meta_epoch": "2025-12-15T23:28:42.248928",
        "meta_mean_motion": 14.73754659,
        "meta_eccentricity": 0.01711481,
        "meta_inclination": 98.903,
        "meta_ra_of_asc_node": 242.0971,
        "meta_arg_of_pericenter": 73.1296,
        "meta_mean_anomaly": 288.8599,
        "meta_ephemeris_type": 0,
        "meta_classification_type": "U",
        "meta_norad_cat_id": 35153,
        "meta_element_set_no": 999,
        "meta_rev_at_epoch": 97265,
        "meta_bstar": 0.00026510273,
        "meta_mean_motion_dot": 2.12e-05,
        "meta_mean_motion_ddot": 0,
        "tle_line1": "1 35153U 99025DMH 25349.97826677  .00002120  00000+0  26510-3 0  9998",
        "tle_line2": "2 35153  98.9030 242.0971 0171148  73.1296 288.8599 14.73754659972652"
      },
      "geometry": {
        "type": "Point",
        "coordinates": [
          73.69268104992618,
          48.35695232071704
        ]
      }
    },
    {
      "type": "Feature",
      "properties": {
        "norad_id": 35154,
        "name": "FENGYUN 1C DEB",
        "group": "fengyun-1c-debris",
        "lat": -72.37107765723542,
        "lon": -98.44346564855385,
        "alt_km": 925.96575562824,
        "timestamp": "2025-12-17T07:00:47.192249+00:00",
        "meta_object_name": "FENGYUN 1C DEB",
        "meta_object_id": "1999-025DMJ",
        "meta_epoch": "2025-12-14T01:39:24.585984",
        "meta_mean_motion": 14.18900379,
        "meta_eccentricity": 0.01792994,
        "meta_inclination": 99.4217,
        "meta_ra_of_asc_node": 109.6332,
        "meta_arg_of_pericenter": 38.7298,
        "meta_mean_anomaly": 322.6573,
        "meta_ephemeris_type": 0,
        "meta_classification_type": "U",
        "meta_norad_cat_id": 35154,
        "meta_element_set_no": 999,
        "meta_rev_at_epoch": 64596,
        "meta_bstar": 0.00037357522,
        "meta_mean_motion_dot": 8.63e-06,
        "meta_mean_motion_ddot": 0,
        "tle_line1": "1 35154U 99025DMJ 25348.06903456  .00000863  00000+0  37358-3 0  9993",
        "tle_line2": "2 35154  99.4217 109.6332 0179299  38.7298 322.6573 14.18900379645960"
      },
      "geometry": {
        "type": "Point",
        "coordinates": [
          -98.44346564855385,
          -72.37107765723542
        ]
      }
    },
    {
      "type": "Feature",
      "properties": {
        "norad_id": 35155,
        "name": "FENGYUN 1C DEB",
        "group": "fengyun-1c-debris",
        "lat": 22.567763846044404,
        "lon": -0.7856887347900711,
        "alt_km": 812.2402280040287,
        "timestamp": "2025-12-17T07:00:47.192259+00:00",
        "meta_object_name": "FENGYUN 1C DEB",
        "meta_object_id": "1999-025DMK",
        "meta_epoch": "2025-12-13T11:32:29.448096",
        "meta_mean_motion": 14.19285709,
        "meta_eccentricity": 0.00260991,
        "meta_inclination": 98.5012,
        "meta_ra_of_asc_node": 359.121,
        "meta_arg_of_pericenter": 70.7543,
        "meta_mean_anomaly": 289.6454,
        "meta_ephemeris_type": 0,
        "meta_classification_type": "U",
        "meta_norad_cat_id": 35155,
        "meta_element_set_no": 999,
        "meta_rev_at_epoch": 72724,
        "meta_bstar": 0.00090034288,
        "meta_mean_motion_dot": 1.854e-05,
        "meta_mean_motion_ddot": 0,
        "tle_line1": "1 35155U 99025DMK 25347.48089639  .00001854  00000+0  90034-3 0  9998",
        "tle_line2": "2 35155  98.5012 359.1210 0026099  70.7543 289.6454 14.19285709727245"
      },
      "geometry": {
        "type": "Point",
        "coordinates": [
          -0.7856887347900711,
          22.567763846044404
        ]
      }
    },
    {
      "type": "Feature",
      "properties": {
        "norad_id": 35156,
        "name": "FENGYUN 1C DEB",
        "group": "fengyun-1c-debris",
        "lat": -37.91616591256609,
        "lon": -15.513519471978725,
        "alt_km": 890.1773520125953,
        "timestamp": "2025-12-17T07:00:47.192269+00:00",
        "meta_object_name": "FENGYUN 1C DEB",
        "meta_object_id": "1999-025DML",
        "meta_epoch": "2025-12-12T16:32:42.860544",
        "meta_mean_motion": 14.10626157,
        "meta_eccentricity": 0.00370025,
        "meta_inclination": 98.7527,
        "meta_ra_of_asc_node": 333.1123,
        "meta_arg_of_pericenter": 148.5895,
        "meta_mean_anomaly": 211.7497,
        "meta_ephemeris_type": 0,
        "meta_classification_type": "U",
        "meta_norad_cat_id": 35156,
        "meta_element_set_no": 999,
        "meta_rev_at_epoch": 64043,
        "meta_bstar": 0.00049181464,
        "meta_mean_motion_dot": 8.41e-06,
        "meta_mean_motion_ddot": 0,
        "tle_line1": "1 35156U 99025DML 25346.68938496  .00000841  00000+0  49181-3 0  9996",
        "tle_line2": "2 35156  98.7527 333.1123 0037002 148.5895 211.7497 14.10626157640439"
      },
      "geometry": {
        "type": "Point",
        "coordinates": [
          -15.513519471978725,
          -37.91616591256609
        ]
      }
    }
  ]
}